497P/Spacewatch-PANSTARRS,e,10.4376,40.3563,32.3744,5.607375,0.0742275,0.63000537,36.2118,06/18.0/2026,2000,g 17.5,4.0
# From MPC191640
498P/LINEAR,e,14.4825,279.2319,179.1128,4.593902,0.1000994,0.57219863,54.6630,06/18.0/2026,2000,g 14.7,4.0
# From MPC191640
500P/PANSTARRS,e,2.3015,111.5262,46.7371,3.417253,0.1560229,0.37604143,69.1051,06/18.0/2026,2000,g 16.0,4.0
# From MPC191640
502P/NEAT,e,11.3987,264.4750,37.7054,7.992728,0.0436176,0.47087750,13.8376,06/18.0/2026,2000,g  8.5,4.0
# From MPC191640
503P/PANSTARRS,e,10.5746,268.5783,17.9296,3.657332,0.1409151,0.48125525,31.6335,06/18.0/2026,2000,g 15.0,4.0
# From MPC191641
504P/WISE-PANSTARRS,e,8.8053,221.1139,308.5675,3.746101,0.1359361,0.40622518,59.1108,06/18.0/2026,2000,g 14.3,4.0
# From MPC191641
505P/Palomar,e,11.3882,111.9417,143.9374,4.114085,0.1181121,0.31088654,17.8827,06/18.0/2026,2000,g 14.9,4.0
# From MPC191641
506P/WISE-LINEAR,e,13.6596,325.5818,354.7146,5.587798,0.0746179,0.48155245,76.6349,06/18.0/2026,2000,g 12.7,4.0
# From MPC191641
507P/Lemmon,e,17.0705,232.9896,107.7827,6.202554,0.0638041,0.56795983,82.7412,06/18.0/2026,2000,g 12.6,4.0
# From MPC191641
508P/McNaught,e,31.7330,268.8250,338.8621,3.574183,0.1458609,0.56942510,49.8502,06/18.0/2026,2000,g 16.5,4.0
# From MPEC 2026-HH0
509P/Catalina,e,8.5957,275.2053,180.0230,7.071310,0.0524148,0.47776983,4.7518,06/18.0/2026,2000,g 10.0,4.0
# From MPEC 2026-J11
510P/Boattini,e,8.2269,280.6565,86.6882,6.480285,0.0597466,0.24767686,355.0314,06/18.0/2026,2000,g  9.5,4.0
# From MPC194204
511P/PANSTARRS,e,14.7842,271.0289,81.2962,3.010950,0.1886465,0.23726440,64.4708,06/18.0/2026,2000,g 17.1,4.0
# From MPC191641
512P/PANSTARRS,e,12.5694,73.7312,308.7339,5.695845,0.0725048,0.15701458,347.6678,06/18.0/2026,2000,g 10.0,4.0
# From MPC191641
513P/Broughton,e,21.3849,56.9969,304.8887,7.254492,0.0504421,0.55143738,18.6208,06/18.0/2026,2000,g 11.0,4.0
# From MPC194204
514P/Lemmon-PANSTARRS,e,6.5054,321.5972,89.4947,4.552008,0.1014844,0.36044804,20.8870,06/18.0/2026,2000,g 14.0,4.0
# From MPEC 2026-L50
515P/PANSTARRS,e,21.0566,119.4728,11.4222,4.363031,0.1081488,0.35450026,21.4314,06/18.0/2026,2000,g 14.5,4.0
# From MPC194204
516P/PANSTARRS,e,4.0212,104.6605,72.7178,3.663087,0.1405831,0.31418344,351.8859,06/18.0/2026,2000,g 15.7,4.0
# From MPC107687
1I/`Oumuamua,h,09/09.4886/2017,122.6778,24.5997,241.6845,1.199252,0.255240,2000,23.0,2.0
# From MPEC 2025-R69
2I/Borisov,h,12/09.0572/2019,44.2624,307.8024,209.2911,3.345952,1.997724,2000,11.0,4.0
# From MPEC 2026-G41
3I/ATLAS,h,10/29.4825/2025,175.1129,322.1535,128.0055,6.139884,1.356507,2000,11.8,4.0
